ONEWEB-0055             
1 45443U 20020V   23347.62646941 -.00000340  00000+0 -99542-3 0  9991
2 45443  87.8979 203.2060 0001389  89.1490 270.9797 13.11415303182492
ONEWEB-0093             
1 45444U 20020W   23347.67599354  .00000539  00000+0  14848-2 0  9995
2 45444  87.8971 203.1752 0001252  97.0884 263.0386 13.11418290182558
ONEWEB-0029             
1 45445U 20020X   23347.61916836 -.00000133  00000+0 -41005-3 0  9996
2 45445  87.8977 203.1990 0001233  76.9455 283.1810 13.11414395182522
ONEWEB-0068             
1 45446U 20020Y   23347.67029774  .00000525  00000+0  14460-2 0  9996
2 45446  87.8972 203.1750 0001231  88.9425 271.1844 13.11409375182470
ONEWEB-0046             
1 45447U 20020Z   23347.66787984  .00000537  00000+0  14789-2 0  9997
2 45447  87.8972 203.1881 0001522  67.4221 292.7068 13.11417365182481
ONEWEB-0063             
1 45448U 20020AA  23347.69709307 -.00000190  00000+0 -57305-3 0  9993
2 45448  87.8977 203.1838 0001621  71.1752 288.9551 13.11415323182576
ONEWEB-0019             
1 45449U 20020AB  23347.67113612  .00000624  00000+0  17246-2 0  9999
2 45449  87.8974 203.1854 0001652  84.9330 275.1987 13.11417287182415
ONEWEB-0094             
1 45450U 20020AC  23347.60311451  .00000011  00000+0 -48710-5 0  9999
2 45450  87.9151 188.0808 0001520  86.9481 273.1825 13.17649358185603
ONEWEB-0087             
1 45451U 20020AD  23347.62728002 -.00000453  00000+0 -13136-2 0  9998
2 45451  87.8964 203.1800 0001134  77.1989 282.9266 13.11415145182458
ONEWEB-0082             
1 45452U 20020AE  23347.62890309 -.00000455  00000+0 -13200-2 0  9993
2 45452  87.8980 203.1721 0001469  86.3571 273.7725 13.11415440182545
ONEWEB-0050             
1 45453U 20020AF  23347.75510457  .00004104  00000+0  32373-3 0  9997
2 45453  88.0017  75.6300 0024706  25.9389 334.3077 15.00260868203810
ONEWEB-0034             
1 45454U 20020AG  23347.64838449 -.00000326  00000+0 -95564-3 0  9995
2 45454  87.8979 203.1860 0001382  82.4657 277.6628 13.11418409182469
ONEWEB-0060             
1 45455U 20020AH  23347.65650670  .00000184  00000+0  48293-3 0  9992
2 45455  87.8974 203.1813 0001355  76.0721 284.0557 13.11419241182428
ONEWEB-0086             
1 45456U 20020AJ  23347.67437707  .00000486  00000+0  13362-2 0  9992
2 45456  87.8978 203.1834 0000947  84.4849 275.6387 13.11417245182481
ONEWEB-0088             
1 45457U 20020AK  23347.65163432  .00000090  00000+0  21780-3 0  9997
2 45457  87.8968 203.1637 0001437  82.3853 277.7438 13.11419083182414
ONEWEB-0102             
1 47258U 20100A   23347.91747011 -.00000069  00000+0 -22652-3 0  9994
2 47258  87.9001 172.9345 0001735  94.8421 265.2906 13.12443419144548
ONEWEB-0109             
1 47259U 20100B   23347.92540877 -.00000286  00000+0 -83137-3 0  9993
2 47259  87.8997 172.8967 0001605  93.1675 266.9638 13.12440691144370
ONEWEB-0110             
1 47260U 20100C   23347.94922445 -.00000111  00000+0 -34385-3 0  9990
2 47260  87.8995 172.9063 0001548  99.4663 260.6640 13.12446198144541
ONEWEB-0111             
1 47261U 20100D   23347.90635719  .00000568  00000+0  15422-2 0  9996
2 47261  87.8996 172.9042 0001452  96.4025 263.7269 13.12441183144374
ONEWEB-0114             
1 47262U 20100E   23347.93651290 -.00000405  00000+0 -11606-2 0  9994
2 47262  87.8997 172.9196 0002074  94.0142 266.1224 13.12441636144338
ONEWEB-0117             
1 47263U 20100F   23347.92857666 -.00000311  00000+0 -89967-3 0  9991
2 47263  87.8999 172.8884 0001491  90.9964 269.1335 13.12443754144343
ONEWEB-0118             
1 47264U 20100G   23347.88410921  .00000101  00000+0  24540-3 0  9997
2 47264  87.9001 172.9024 0002032  80.4772 279.6586 13.12444544144532
ONEWEB-0119             
1 47265U 20100H   23347.91270092  .00000068  00000+0  15334-3 0  9998
2 47265  87.9001 172.9347 0001469  95.8034 264.3262 13.12442222144516
ONEWEB-0120             
1 47266U 20100J   23347.94208405 -.00000298  00000+0 -86315-3 0  9995
2 47266  87.9002 172.9190 0001687  86.1217 274.0105 13.12447008144546
ONEWEB-0121             
1 47267U 20100K   23347.92380965 -.00000265  00000+0 -77236-3 0  9992
2 47267  87.8997 172.9201 0001343  94.2596 265.8686 13.12440101144450
ONEWEB-0122             
1 47268U 20100L   23347.91890987 -.00000105  00000+0 -32778-3 0  9997
2 47268  87.8998 172.9251 0001593  94.7528 265.3783 13.12440166144368
ONEWEB-0123             
1 47269U 20100M   23347.91428482  .00000044  00000+0  87765-4 0  9992
2 47269  87.9001 172.9332 0001548  91.8141 268.3164 13.12440478144502
ONEWEB-0124             
1 47270U 20100N   23347.90318172  .00000354  00000+0  94818-3 0  9997
2 47270  87.9001 172.9311 0001274 102.1580 257.9691 13.12439718144380
ONEWEB-0125             
1 47271U 20100P   23347.57282164  .00000157  00000+0  40156-3 0  9999
2 47271  87.9001 172.9535 0001391  73.7671 286.3610 13.12443464144406
ONEWEB-0126             
1 47272U 20100Q   23347.90552812 -.00000271  00000+0 -78943-3 0  9991
2 47272  87.8998 172.9011 0001721  89.8432 270.2893 13.12437505144516
ONEWEB-0127             
1 47273U 20100R   23347.94288524 -.00000278  00000+0 -80948-3 0  9997
2 47273  87.8999 172.9159 0001639  93.3800 266.7516 13.12441845144545
ONEWEB-0128             
1 47274U 20100S   23347.88889387  .00000460  00000+0  12423-2 0  9998
2 47274  87.9008 172.9190 0001435 104.4524 255.6763 13.12444908144559
ONEWEB-0129             
1 47275U 20100T   23347.94447203 -.00000242  00000+0 -70780-3 0  9994
2 47275  87.8950 172.8953 0003185  92.8060 267.3433 13.12444148144493
ONEWEB-0130             
1 47276U 20100U   23347.89683195  .00000493  00000+0  13342-2 0  9997
2 47276  87.9001 172.9068 0001535  96.3755 263.7548 13.12440993144454
ONEWEB-0131             
1 47277U 20100V   23347.89365809  .00000486  00000+0  13167-2 0  9994
2 47277  87.9015 172.9147 0001430  96.9708 263.1583 13.12443442144495
ONEWEB-0132             
1 47278U 20100W   23347.92222401 -.00000216  00000+0 -63713-3 0  9995
2 47278  87.9014 172.9109 0001258  86.2687 273.8586 13.12440596144396
ONEWEB-0133             
1 47279U 20100X   23347.93810347 -.00000464  00000+0 -13247-2 0  9990
2 47279  87.8997 172.9196 0001363  88.2985 271.8299 13.12443244144552
ONEWEB-0134             
1 47280U 20100Y   23347.90793601  .00000225  00000+0  59098-3 0  9990
2 47280  87.8995 172.9147 0001612 103.0991 257.0317 13.12442268144527
ONEWEB-0135             
1 47281U 20100Z   23347.57122215  .00000080  00000+0  18802-3 0  9998
2 47281  87.9001 172.9870 0001520  96.0863 264.0439 13.12443817144509
ONEWEB-0136             
1 47282U 20100AA  23347.89840704  .00000428  00000+0  11546-2 0  9997
2 47282  87.9001 172.8906 0001815 106.4999 253.6329 13.12441690144477
ONEWEB-0137             
1 47283U 20100AB  23347.93176571 -.00000405  00000+0 -11598-2 0  9991
2 47283  87.8998 172.9171 0001682  91.5734 268.5587 13.12443939144389
ONEWEB-0138             
1 47284U 20100AC  23347.91111152  .00000187  00000+0  48552-3 0  9990
2 47284  87.8997 172.9337 0001594  95.5400 264.5910 13.12442956144462
ONEWEB-0139             
1 47285U 20100AD  23347.88254054  .00000166  00000+0  42666-3 0  9993
2 47285  87.8949 172.9040 0001508  94.6465 265.4835 13.12443367144538
ONEWEB-0140             
1 47286U 20100AE  23347.90476045  .00000305  00000+0  81132-3 0  9999
2 47286  87.8998 172.9100 0001610  98.4588 261.6723 13.12440649144503
ONEWEB-0141             
1 47287U 20100AF  23347.92457341 -.00000758  00000+0 -21438-2 0  9996
2 47287  87.9001 172.9024 0001522  79.0595 281.0705 13.12437855144499
ONEWEB-0142             
1 47288U 20100AG  23347.91825431 -.00000099  00000+0 -31015-3 0  9996
2 47288  87.8999 172.8975 0001767  88.6487 271.4844 13.12446519144489
ONEWEB-0143             
1 47289U 20100AH  23347.94764521 -.00000159  00000+0 -47783-3 0  9998
2 47289  87.8998 172.9099 0001472  93.2247 266.9050 13.12445073144466
ONEWEB-0144             
1 47290U 20100AJ  23347.92063482 -.00000151  00000+0 -45634-3 0  9991
2 47290  87.9000 172.8996 0001905  93.7294 266.4052 13.12440272144380
ONEWEB-0145             
1 47291U 20100AK  23347.89205605  .00000444  00000+0  11997-2 0  9990
2 47291  87.8999 172.9289 0001644  92.4971 267.6345 13.12445327144576
ONEWEB-0146             
1 47292U 20100AL  23347.88729397  .00000373  00000+0  10018-2 0  9993
2 47292  87.8917 172.9271 0001012  84.9370 275.1874 13.12443990144481
ONEWEB-0147             
1 47293U 20100AM  23347.93017390 -.00000401  00000+0 -11499-2 0  9991
2 47293  87.8996 172.9036 0001664 108.7135 251.4174 13.12444682144383
ONEWEB-0115             
1 48042U 21025A   23347.91130059 -.00000106  00000+0 -32624-3 0  9993
2 48042  87.8985 142.5980 0001352 101.8808 258.2473 13.13469528133315
ONEWEB-0152             
1 48043U 21025B   23347.92398980 -.00000397  00000+0 -11229-2 0  9993
2 48043  87.9005 142.5816 0001691  89.5594 270.5728 13.13467569133276
ONEWEB-0153             
1 48044U 21025C   23347.90177308  .00000067  00000+0  14962-3 0  9991
2 48044  87.8982 142.5752 0001644  99.9618 260.1696 13.13467190133267
ONEWEB-0154             
1 48045U 21025D   23347.89859572  .00000159  00000+0  40154-3 0  9994
2 48045  87.8989 142.5907 0001585 105.2812 254.8493 13.13468315133229
ONEWEB-0116             
1 48046U 21025E   23347.93988234 -.00000173  00000+0 -50898-3 0  9992
2 48046  87.8982 142.5474 0001325 102.9915 257.1363 13.13466456133374
ONEWEB-0150             
1 48047U 21025F   23347.91446456 -.00000185  00000+0 -54045-3 0  9997
2 48047  87.8987 142.5807 0001691  98.0223 262.1098 13.13473092133266
ONEWEB-0107             
1 48048U 21025G   23347.91605981 -.00000225  00000+0 -65110-3 0  9998
2 48048  87.8986 142.5780 0001827  93.1861 266.9477 13.13468636133240
ONEWEB-0101             
1 48049U 21025H   23347.87956294  .00000225  00000+0  58152-3 0  9996
2 48049  87.8982 142.5925 0001654 104.8353 255.2960 13.13469659133213
